NORAD_CAT_ID,OBJECT_NAME,OBJECT_TYPE,EPOCH,MEAN_MOTION,ECCENTRICITY,INCLINATION,RA_OF_ASC_NODE,ARG_OF_PERICENTER,MEAN_ANOMALY,BSTAR,MEAN_MOTION_DOT,MEAN_MOTION_DDOT,TLE_LINE0,TLE_LINE1,TLE_LINE2,SEMIMAJOR_AXIS,PERIOD,APOGEE,PERIGEE,DECAYED
56493.0,STARLINK-5841,PAYLOAD,2023-11-25 15:16:02,15.69915095,0.0002885,69.9988,46.0335,271.5271,88.5595,3.4207e-05,3.901e-05,0.0,0 STARLINK-5841,1 56493U 23064AX  23329.63613660  .00003901  00000-0  34207-4 0  9995,2 56493  69.9988  46.0335 0002885 271.5271  88.5595 15.69915095 31247,6737.277,91.725,361.086,357.198,0.0
56493.0,STARLINK-5841,PAYLOAD,2023-11-26 08:05:19,15.6988995,0.0003531,70.0007,44.0636,285.2576,74.823,-5.0764e-05,-6.304e-05,0.0,0 STARLINK-5841,1 56493U 23064AX  23330.33703182 -.00006304  00000-0 -50764-4 0  9991,2 56493  70.0007  44.0636 0003531 285.2576  74.8230 15.69889950 31708,6737.349,91.726,361.593,356.835,0.0
56493.0,STARLINK-5841,PAYLOAD,2023-11-26 14:12:20,15.69887301,0.0002875,70.0009,43.347,267.6834,92.4033,-5.5729e-05,-6.897e-05,0.0,0 STARLINK-5841,1 56493U 23064AX  23330.59190290 -.00006897  00000-0 -55729-4 0  9992,2 56493  70.0009  43.3470 0002875 267.6834  92.4033 15.69887301 31399,6737.356,91.726,361.158,357.284,0.0
56493.0,STARLINK-5841,PAYLOAD,2023-11-26 15:44:05,15.69886687,0.0002824,70.001,43.1677,265.6722,94.4151,-5.5782e-05,-6.903e-05,0.0,0 STARLINK-5841,1 56493U 23064AX  23330.65562090 -.00006903  00000-0 -55782-4 0  9997,2 56493  70.0010  43.1677 0002824 265.6722  94.4151 15.69886687 31407,6737.358,91.726,361.126,357.321,0.0
56493.0,STARLINK-5841,PAYLOAD,2023-11-27 03:58:05,15.69924693,0.0002661,70.0026,41.736,272.7412,87.3479,5.5874e-07,-1.45e-06,0.0,0 STARLINK-5841,1 56493U 23064AX  23331.16534021 -.00000145  00000-0  55874-6 0  9992,2 56493  70.0026  41.7360 0002661 272.7412  87.3479 15.69924693 31832,6737.249,91.724,360.907,357.322,0.0
56493.0,STARLINK-5841,PAYLOAD,2023-11-27 08:33:20,15.69934483,0.000181,70.0029,41.1998,238.6552,121.4467,5.1344e-05,5.968e-05,0.0,0 STARLINK-5841,1 56493U 23064AX  23331.35648505  .00005968  00000-0  51344-4 0  9999,2 56493  70.0029  41.1998 0001810 238.6552 121.4467 15.69934483 31865,6737.221,91.724,360.306,357.867,0.0
56493.0,STARLINK-5841,PAYLOAD,2023-11-27 14:40:20,15.69938451,0.0002289,70.003,40.4842,268.1637,91.9296,5.427e-05,6.321e-05,0.0,0 STARLINK-5841,1 56493U 23064AX  23331.61134996  .00006321  00000-0  54270-4 0  9997,2 56493  70.0030  40.4842 0002289 268.1637  91.9296 15.69938451 31556,6737.21,91.723,360.617,357.533,0.0
56493.0,STARLINK-5841,PAYLOAD,2023-11-28 12:04:53,15.69893088,0.0002633,69.9996,37.9732,266.1897,93.8997,3.28e-05,3.728e-05,0.0,0 STARLINK-5841,1 56493U 23064AX  23332.50340141  .00003728  00000-0  32800-4 0  9990,2 56493  69.9996  37.9732 0002633 266.1897  93.8997 15.69893088 32042,6737.34,91.726,360.979,357.431,0.0
56493.0,STARLINK-5841,PAYLOAD,2023-11-28 13:36:39,15.69888267,0.000237,70.0002,37.794,266.5133,93.5792,2.842e-05,3.201e-05,0.0,0 STARLINK-5841,1 56493U 23064AX  23332.56712402  .00003201  00000-0  28420-4 0  9998,2 56493  70.0002  37.7940 0002370 266.5133  93.5792 15.69888267 31702,6737.354,91.726,360.815,357.622,0.0
56493.0,STARLINK-5841,PAYLOAD,2023-11-29 12:32:55,15.69922186,0.0002432,70.0,35.1099,253.2491,106.8438,-1.9841e-05,-2.597e-05,0.0,0 STARLINK-5841,1 56493U 23064AX  23333.52286414 -.00002597  00000-0 -19841-4 0  9990,2 56493  70.0000  35.1099 0002432 253.2491 106.8438 15.69922186 32206,6737.257,91.724,360.76,357.483,0.0
56493.0,STARLINK-5841,PAYLOAD,2023-11-29 14:04:40,15.69929802,0.0002485,70.0013,34.9316,283.5802,76.5117,-8.7325e-06,-1.262e-05,0.0,0 STARLINK-5841,1 56493U 23064AX  23333.58657662 -.00001262  00000-0 -87325-5 0  9994,2 56493  70.0013  34.9316 0002485 283.5802  76.5117 15.69929802 31869,6737.235,91.724,360.774,357.426,0.0
56493.0,STARLINK-5841,PAYLOAD,2023-11-30 11:29:11,15.69906764,0.000181,70.0012,32.4206,247.5001,112.6003,1.7221e-05,1.857e-05,0.0,0 STARLINK-5841,1 56493U 23064AX  23334.47860449  .00001857  00000-0  17221-4 0  9997,2 56493  70.0012  32.4206 0001810 247.5001 112.6003 15.69906764 32354,6737.301,91.725,360.385,357.946,0.0
56493.0,STARLINK-5841,PAYLOAD,2023-12-01 05:50:14,15.6989531,0.0002263,70.0016,30.2754,231.7859,128.3133,7.3363e-06,6.69e-06,0.0,0 STARLINK-5841,1 56493U 23064AX  23335.24322141  .00000669  00000-0  73363-5 0  9995,2 56493  70.0016  30.2754 0002263 231.7859 128.3133 15.69895310 32476,6737.334,91.726,360.723,357.674,0.0
56493.0,STARLINK-5841,PAYLOAD,2023-12-01 11:57:14,15.69901295,0.0002474,70.0006,29.5581,218.2211,141.8809,4.2932e-06,3.04e-06,0.0,0 STARLINK-5841,1 56493U 23064AX  23335.49808787  .00000304  00000-0  42932-5 0  9991,2 56493  70.0006  29.5581 0002474 218.2211 141.8809 15.69901295 32515,6737.316,91.726,360.848,357.515,0.0
56493.0,STARLINK-5841,PAYLOAD,2023-12-01 13:28:59,15.69906517,0.0002453,70.0004,29.3792,231.9325,128.1649,1.2915e-05,1.34e-05,0.0,0 STARLINK-5841,1 56493U 23064AX  23335.56180200  .00001340  00000-0  12915-4 0  9990,2 56493  70.0004  29.3792 0002453 231.9325 128.1649 15.69906517 32174,6737.301,91.725,360.819,357.514,0.0
56493.0,STARLINK-5841,PAYLOAD,2023-12-02 12:25:17,15.6988109,0.0002362,69.9995,26.687,276.4464,83.6462,-1.201e-05,-1.653e-05,0.0,0 STARLINK-5841,1 56493U 23064AX  23336.51756519 -.00001653  00000-0 -12010-4 0  9993,2 56493  69.9995  26.6870 0002362 276.4464  83.6462 15.69881090 32675,6737.374,91.727,360.831,357.648,0.0
56493.0,STARLINK-5841,PAYLOAD,2023-12-03 11:21:33,15.69911635,0.0002232,69.9998,24.0008,235.8067,124.2917,3.0749e-05,3.484e-05,0.0,0 STARLINK-5841,1 56493U 23064AX  23337.47330100  .00003484  00000-0  30749-4 0  9994,2 56493  69.9998  24.0008 0002232 235.8067 124.2917 15.69911635 32820,6737.287,91.725,360.656,357.648,0.0
56493.0,STARLINK-5841,PAYLOAD,2023-12-03 12:53:17,15.69926001,0.0002266,69.998,23.8198,257.7296,102.3646,3.4929e-05,3.989e-05,0.0,0 STARLINK-5841,1 56493U 23064AX  23337.53700967  .00003989  00000-0  34929-4 0  9997,2 56493  69.9980  23.8198 0002266 257.7296 102.3646 15.69926001 32483,6737.246,91.724,360.637,357.584,0.0
56493.0,STARLINK-5841,PAYLOAD,2023-12-04 11:49:34,15.699243,0.0002953,69.9992,21.1327,273.7106,86.3752,1.4668e-05,1.551e-05,0.0,0 STARLINK-5841,1 56493U 23064AX  23338.49276265  .00001551  00000-0  14668-4 0  9993,2 56493  69.9992  21.1327 0002953 273.7106  86.3752 15.69924300 32986,6737.251,91.724,361.105,357.126,0.0
56493.0,STARLINK-5841,PAYLOAD,2023-12-04 13:21:19,15.6992355,0.0003085,69.999,20.9531,275.5955,84.4889,1.8649e-05,2.03e-05,0.0,0 STARLINK-5841,1 56493U 23064AX  23338.55648018  .00002030  00000-0  18649-4 0  9995,2 56493  69.9990  20.9531 0003085 275.5955  84.4889 15.69923550 32646,6737.253,91.724,361.196,357.039,0.0
56493.0,STARLINK-5841,PAYLOAD,2023-12-05 12:17:36,15.69932516,0.0003185,69.9968,18.267,261.7346,98.3489,-1.1539e-05,-1.6e-05,0.0,0 STARLINK-5841,1 56493U 23064AX  23339.51222918 -.00001600  00000-0 -11539-4 0  9994,2 56493  69.9968  18.2670 0003185 261.7346  98.3489 15.69932516 32795,6737.227,91.724,361.238,356.946,0.0
56493.0,STARLINK-5841,PAYLOAD,2023-12-06 03:35:08,15.69918156,0.0003181,69.997,16.4747,267.1345,92.9486,6.646e-06,5.86e-06,0.0,0 STARLINK-5841,1 56493U 23064AX  23340.14940148  .00000586  00000-0  66460-5 0  9991,2 56493  69.9970  16.4747 0003181 267.1345  92.9486 15.69918156 33240,6737.268,91.725,361.276,356.99,0.0
56493.0,STARLINK-5841,PAYLOAD,2023-12-06 12:45:38,15.69920521,0.0003125,69.9973,15.4001,271.2729,88.8108,6.2078e-06,5.34e-06,0.0,0 STARLINK-5841,1 56493U 23064AX  23340.53170094  .00000534  00000-0  62078-5 0  9993,2 56493  69.9973  15.4001 0003125 271.2729  88.8108 15.69920521 32956,6737.261,91.724,361.232,357.021,0.0
56493.0,STARLINK-5841,PAYLOAD,2023-12-07 04:03:08,15.69996285,0.0003635,69.9971,13.608,273.5975,86.4805,-0.00012269,-0.00014984,0.0,0 STARLINK-5841,1 56493U 23064AX  23341.16885241 -.00014984  00000-0 -12269-3 0  9991,2 56493  69.9971  13.6080 0003635 273.5975  86.4805 15.69996285 33404,6737.045,91.72,361.359,356.461,0.0
56493.0,STARLINK-5841,PAYLOAD,2023-12-07 11:41:55,15.69919818,0.0003778,69.997,12.7127,283.6618,76.4157,1.0058e-05,9.96e-06,0.0,0 STARLINK-5841,1 56493U 23064AX  23341.48745142  .00000996  00000-0  10058-4 0  9992,2 56493  69.9970  12.7127 0003778 283.6618  76.4157 15.69919818 33450,6737.263,91.724,361.674,356.583,0.0
56493.0,STARLINK-5841,PAYLOAD,2023-12-08 12:09:57,15.69925208,0.0003282,69.9973,9.8457,266.0083,94.0737,1.3307e-05,1.388e-05,0.0,0 STARLINK-5841,1 56493U 23064AX  23342.50691610  .00001388  00000-0  13307-4 0  9992,2 56493  69.9973   9.8457 0003282 266.0083  94.0737 15.69925208 33615,6737.248,91.724,361.324,356.902,0.0
56493.0,STARLINK-5841,PAYLOAD,2023-12-09 11:06:14,15.69923819,0.0003204,69.9971,7.1583,265.0854,94.9976,9.0582e-06,8.77e-06,0.0,0 STARLINK-5841,1 56493U 23064AX  23343.46266719  .00000877  00000-0  90582-5 0  9999,2 56493  69.9971   7.1583 0003204 265.0854  94.9976 15.69923819 33411,6737.252,91.724,361.276,356.958,0.0
56493.0,STARLINK-5841,PAYLOAD,2023-12-10 00:52:00,15.69924599,0.0003283,69.9969,5.5463,260.7358,99.3466,3.9978e-06,2.68e-06,0.0,0 STARLINK-5841,1 56493U 23064AX  23344.03611762  .00000268  00000-0  39978-5 0  9991,2 56493  69.9969   5.5463 0003283 260.7358  99.3466 15.69924599 33852,6737.25,91.724,361.327,356.903,0.0
56493.0,STARLINK-5841,PAYLOAD,2023-12-11 04:23:32,15.69926487,0.0003007,69.9972,2.3197,268.1993,91.8858,8.5125e-06,8.11e-06,0.0,0 STARLINK-5841,1 56493U 23064AX  23345.18301509  .00000811  00000-0  85125-5 0  9992,2 56493  69.9972   2.3197 0003007 268.1993  91.8858 15.69926487 34037,6737.244,91.724,361.135,357.083,0.0
56493.0,STARLINK-5841,PAYLOAD,2023-12-11 10:30:33,15.69918838,0.000316,69.9985,1.6032,269.7042,90.3792,-3.8126e-06,-6.71e-06,0.0,0 STARLINK-5841,1 56493U 23064AX  23345.43788970 -.00000671  00000-0 -38126-5 0  9996,2 56493  69.9985   1.6032 0003160 269.7042  90.3792 15.69918838 34079,6737.266,91.724,361.26,357.002,0.0
